STARLINK-31594          
1 59332U 24057N   26068.39651260 -.00006890  00000+0 -24084-3 0  9999
2 59332  43.0042 200.0261 0003285 297.6612  62.3906 15.27601530109667
FLOCK 4G-11             
1 62629U 25009W   26068.45629261  .00012672  00000+0  47740-3 0  9990
2 62629  97.3964 150.6183 0001611 333.5407  26.5750 15.27220677 63680
